{"type": "FeatureCollection", "features": [ {"type": "Feature", "properties": {"norad_id": 66979, "name": "STARLINK-36107", "group": "last-30-days", "lat": 42.54981732672614, "lon": -178.55878329425556, "alt_km": 385.47210292764794, "timestamp": "2025-12-26T19:22:37.607929+00:00", "meta": {"OBJECT_NAME": "STARLINK-36107", "OBJECT_ID": "2025-288W", "EPOCH": "2025-12-26T14:00:04.000032", "MEAN_MOTION": 15.59752006, "ECCENTRICITY": 0.00013126, "INCLINATION": 43.0001, "RA_OF_ASC_NODE": 82.855, "ARG_OF_PERICENTER": 275.589, "MEAN_ANOMALY": 2.7806, "EPHEMERIS_TYPE": 0, "CLASSIFICATION_TYPE": "U", "NORAD_CAT_ID": 66979, "ELEMENT_SET_NO": 999, "REV_AT_EPOCH": 405, "BSTAR": -0.027304502, "MEAN_MOTION_DOT": -0.01975333, "MEAN_MOTION_DDOT": 0}, "tle": {"line1": "1 66979U 25288W   25360.58337963 -.01975333  00000+0 -27305-1 0  9992", "line2": "2 66979  43.0001  82.8550 0001312 275.5890   2.7806 15.59752006  4050"}}, "geometry": {"type": "Point", "coordinates": [-178.55878329425556, 42.54981732672614]}}, {"type": "Feature", "properties": {"norad_id": 66980, "name": "STARLINK-36086", "group": "last-30-days", "lat": 42.29589919126578, "lon": -175.98679858914952, "alt_km": 385.4750374700152, "timestamp": "2025-12-26T19:22:37.607939+00:00", "meta": {"OBJECT_NAME": "STARLINK-36086", "OBJECT_ID": "2025-288X", "EPOCH": "2025-12-26T14:00:04.000032", "MEAN_MOTION": 15.59749412, "ECCENTRICITY": 0.00012606, "INCLINATION": 43.0004, "RA_OF_ASC_NODE": 82.8498, "ARG_OF_PERICENTER": 278.4226, "MEAN_ANOMALY": 1.8646, "EPHEMERIS_TYPE": 0, "CLASSIFICATION_TYPE": "U", "NORAD_CAT_ID": 66980, "ELEMENT_SET_NO": 999, "REV_AT_EPOCH": 405, "BSTAR": -0.0272586, "MEAN_MOTION_DOT": -0.01972208, "MEAN_MOTION_DDOT": 0}, "tle": {"line1": "1 66980U 25288X   25360.58337963 -.01972208  00000+0 -27259-1 0  9990", "line2": "2 66980  43.0004  82.8498 0001260 278.4226   1.8646 15.59749412  4052"}}, "geometry": {"type": "Point", "coordinates": [-175.98679858914952, 42.29589919126578]}}, {"type": "Feature", "properties": {"norad_id": 66981, "name": "STARLINK-36142", "group": "last-30-days", "lat": 41.984276772343684, "lon": -173.43575779768162, "alt_km": 385.5595934701696, "timestamp": "2025-12-26T19:22:37.607949+00:00", "meta": {"OBJECT_NAME": "STARLINK-36142", "OBJECT_ID": "2025-288Y", "EPOCH": "2025-12-26T14:00:04.000032", "MEAN_MOTION": 15.59751918, "ECCENTRICITY": 0.00013083, "INCLINATION": 43.0004, "RA_OF_ASC_NODE": 82.8452, "ARG_OF_PERICENTER": 277.0974, "MEAN_ANOMALY": 5.1077, "EPHEMERIS_TYPE": 0, "CLASSIFICATION_TYPE": "U", "NORAD_CAT_ID": 66981, "ELEMENT_SET_NO": 999, "REV_AT_EPOCH": 405, "BSTAR": -0.027331615, "MEAN_MOTION_DOT": -0.01977045, "MEAN_MOTION_DDOT": 0}, "tle": {"line1": "1 66981U 25288Y   25360.58337963 -.01977045  00000+0 -27332-1 0  9997", "line2": "2 66981  43.0004  82.8452 0001308 277.0974   5.1077 15.59751918  4050"}}, "geometry": {"type": "Point", "coordinates": [-173.43575779768162, 41.984276772343684]}}, {"type": "Feature", "properties": {"norad_id": 66982, "name": "STARLINK-36113", "group": "last-30-days", "lat": 41.61619391752353, "lon": -170.9126409617725, "alt_km": 385.7125187689335, "timestamp": "2025-12-26T19:22:37.607959+00:00", "meta": {"OBJECT_NAME": "STARLINK-36113", "OBJECT_ID": "2025-288Z", "EPOCH": "2025-12-26T14:00:04.000032", "MEAN_MOTION": 15.59747766, "ECCENTRICITY": 0.00014405, "INCLINATION": 43, "RA_OF_ASC_NODE": 82.84, "ARG_OF_PERICENTER": 280.8099, "MEAN_ANOMALY": 3.3148, "EPHEMERIS_TYPE": 0, "CLASSIFICATION_TYPE": "U", "NORAD_CAT_ID": 66982, "ELEMENT_SET_NO": 999, "REV_AT_EPOCH": 405, "BSTAR": -0.027279341, "MEAN_MOTION_DOT": -0.01973543, "MEAN_MOTION_DDOT": 0}, "tle": {"line1": "1 66982U 25288Z   25360.58337963 -.01973543  00000+0 -27279-1 0  9997", "line2": "2 66982  43.0000  82.8400 0001440 280.8099   3.3148 15.59747766  4052"}}, "geometry": {"type": "Point", "coordinates": [-170.9126409617725, 41.61619391752353]}}, {"type": "Feature", "properties": {"norad_id": 66983, "name": "STARLINK-36145", "group": "last-30-days", "lat": 40.71928231602836, "lon": -165.9674196862943, "alt_km": 385.71126737380655, "timestamp": "2025-12-26T19:22:37.607971+00:00", "meta": {"OBJECT_NAME": "STARLINK-36145", "OBJECT_ID": "2025-288AA", "EPOCH": "2025-12-26T14:00:04.000032", "MEAN_MOTION": 15.5974716, "ECCENTRICITY": 0.00012605, "INCLINATION": 42.9999, "RA_OF_ASC_NODE": 82.8303, "ARG_OF_PERICENTER": 275.6945, "MEAN_ANOMALY": 12.2627, "EPHEMERIS_TYPE": 0, "CLASSIFICATION_TYPE": "U", "NORAD_CAT_ID": 66983, "ELEMENT_SET_NO": 999, "REV_AT_EPOCH": 405, "BSTAR": -0.027191067, "MEAN_MOTION_DOT": -0.01967769, "MEAN_MOTION_DDOT": 0}, "tle": {"line1": "1 66983U 25288AA  25360.58337963 -.01967769  00000+0 -27191-1 0  9994", "line2": "2 66983  42.9999  82.8303 0001260 275.6945  12.2627 15.59747160  4051"}}, "geometry": {"type": "Point", "coordinates": [-165.9674196862943, 40.71928231602836]}}, {"type": "Feature", "properties": {"norad_id": 66984, "name": "STARLINK-35591", "group": "last-30-days", "lat": 41.194975109359724, "lon": -168.4265854891279, "alt_km": 385.6250825349889, "timestamp": "2025-12-26T19:22:37.607983+00:00", "meta": {"OBJECT_NAME": "STARLINK-35591", "OBJECT_ID": "2025-288AB", "EPOCH": "2025-12-26T14:00:04.000032", "MEAN_MOTION": 15.5975091, "ECCENTRICITY": 0.00012422, "INCLINATION": 43.0001, "RA_OF_ASC_NODE": 82.8346, "ARG_OF_PERICENTER": 274.9232, "MEAN_ANOMALY": 11.1141, "EPHEMERIS_TYPE": 0, "CLASSIFICATION_TYPE": "U", "NORAD_CAT_ID": 66984, "ELEMENT_SET_NO": 999, "REV_AT_EPOCH": 405, "BSTAR": -0.027261655, "MEAN_MOTION_DOT": -0.0197249, "MEAN_MOTION_DDOT": 0}, "tle": {"line1": "1 66984U 25288AB  25360.58337963 -.01972490  00000+0 -27262-1 0  9991", "line2": "2 66984  43.0001  82.8346 0001242 274.9232  11.1141 15.59750910  4052"}}, "geometry": {"type": "Point", "coordinates": [-168.4265854891279, 41.194975109359724]}}, {"type": "Feature", "properties": {"norad_id": 66985, "name": "STARLINK-36103", "group": "last-30-days", "lat": 40.192664636177796, "lon": -163.54720760369273, "alt_km": 385.79352798738637, "timestamp": "2025-12-26T19:22:37.607994+00:00", "meta": {"OBJECT_NAME": "STARLINK-36103", "OBJECT_ID": "2025-288AC", "EPOCH": "2025-12-26T14:00:04.000032", "MEAN_MOTION": 15.5974721, "ECCENTRICITY": 0.00012688, "INCLINATION": 43, "RA_OF_ASC_NODE": 82.8255, "ARG_OF_PERICENTER": 276.5912, "MEAN_ANOMALY": 13.2822, "EPHEMERIS_TYPE": 0, "CLASSIFICATION_TYPE": "U", "NORAD_CAT_ID": 66985, "ELEMENT_SET_NO": 999, "REV_AT_EPOCH": 405, "BSTAR": -0.027169919, "MEAN_MOTION_DOT": -0.01966434, "MEAN_MOTION_DDOT": 0}, "tle": {"line1": "1 66985U 25288AC  25360.58337963 -.01966434  00000+0 -27170-1 0  9991", "line2": "2 66985  43.0000  82.8255 0001268 276.5912  13.2822 15.59747210  4050"}}, "geometry": {"type": "Point", "coordinates": [-163.54720760369273, 40.192664636177796]}}, {"type": "Feature", "properties": {"norad_id": 66986, "name": "STARLINK-36135", "group": "last-30-days", "lat": 39.61610507691013, "lon": -161.1655400385974, "alt_km": 385.86017824259943, "timestamp": "2025-12-26T19:22:37.608004+00:00", "meta": {"OBJECT_NAME": "STARLINK-36135", "OBJECT_ID": "2025-288AD", "EPOCH": "2025-12-26T14:00:04.000032", "MEAN_MOTION": 15.59748472, "ECCENTRICITY": 0.00012294, "INCLINATION": 43.0002, "RA_OF_ASC_NODE": 82.8203, "ARG_OF_PERICENTER": 279.3504, "MEAN_ANOMALY": 12.4392, "EPHEMERIS_TYPE": 0, "CLASSIFICATION_TYPE": "U", "NORAD_CAT_ID": 66986, "ELEMENT_SET_NO": 999, "REV_AT_EPOCH": 405, "BSTAR": -0.027212797, "MEAN_MOTION_DOT": -0.01969215, "MEAN_MOTION_DDOT": 0}, "tle": {"line1": "1 66986U 25288AD  25360.58337963 -.01969215  00000+0 -27213-1 0  9990", "line2": "2 66986  43.0002  82.8203 0001229 279.3504  12.4392 15.59748472  4055"}}, "geometry": {"type": "Point", "coordinates": [-161.1655400385974, 39.61610507691013]}}, {"type": "Feature", "properties": {"norad_id": 66987, "name": "STARLINK-36147", "group": "last-30-days", "lat": 38.99115177430001, "lon": -158.82393140989828, "alt_km": 386.05621442677784, "timestamp": "2025-12-26T19:22:37.608014+00:00", "meta": {"OBJECT_NAME": "STARLINK-36147", "OBJECT_ID": "2025-288AE", "EPOCH": "2025-12-26T14:00:04.000032", "MEAN_MOTION": 15.59750465, "ECCENTRICITY": 0.00013731, "INCLINATION": 43.0001, "RA_OF_ASC_NODE": 82.8158, "ARG_OF_PERICENTER": 279.8119, "MEAN_ANOMALY": 13.8956, "EPHEMERIS_TYPE": 0, "CLASSIFICATION_TYPE": "U", "NORAD_CAT_ID": 66987, "ELEMENT_SET_NO": 999, "REV_AT_EPOCH": 405, "BSTAR": -0.027303903, "MEAN_MOTION_DOT": -0.01975235, "MEAN_MOTION_DDOT": 0}, "tle": {"line1": "1 66987U 25288AE  25360.58337963 -.01975235  00000+0 -27304-1 0  9991", "line2": "2 66987  43.0001  82.8158 0001373 279.8119  13.8956 15.59750465  4057"}}, "geometry": {"type": "Point", "coordinates": [-158.82393140989828, 38.99115177430001]}}, {"type": "Feature", "properties": {"norad_id": 66988, "name": "YAOGAN-47", "group": "last-30-days", "lat": 46.19763896140401, "lon": 58.03912479871819, "alt_km": 491.5691975935888, "timestamp": "2025-12-26T19:22:37.608024+00:00", "meta": {"OBJECT_NAME": "YAOGAN-47", "OBJECT_ID": "2025-289A", "EPOCH": "2025-12-20T02:21:43.539840", "MEAN_MOTION": 15.23243112, "ECCENTRICITY": 6.467e-05, "INCLINATION": 97.5265, "RA_OF_ASC_NODE": 59.2376, "ARG_OF_PERICENTER": 91.4531, "MEAN_ANOMALY": 268.678, "EPHEMERIS_TYPE": 0, "CLASSIFICATION_TYPE": "U", "NORAD_CAT_ID": 66988, "ELEMENT_SET_NO": 999, "REV_AT_EPOCH": 166, "BSTAR": 0.00010945697, "MEAN_MOTION_DOT": 2.52e-05, "MEAN_MOTION_DDOT": 0}, "tle": {"line1": "1 66988U 25289A   25354.09842060  .00002520  00000+0  10946-3 0  9992", "line2": "2 66988  97.5265  59.2376 0000646  91.4531 268.6780 15.23243112  1668"}}, "geometry": {"type": "Point", "coordinates": [58.03912479871819, 46.19763896140401]}}]}